[{"OBJECT_NAME":"STARLINK-5729","OBJECT_ID":"2023-020AD","EPOCH":"2026-03-09T22:00:01.999584","MEAN_MOTION":15.10104174,"ECCENTRICITY":9.821e-5,"INCLINATION":42.9997,"RA_OF_ASC_NODE":2.8491,"ARG_OF_PERICENTER":242.2129,"MEAN_ANOMALY":346.1294,"EPHEMERIS_TYPE":0,"CLASSIFICATION_TYPE":"U","NORAD_CAT_ID":55596,"ELEMENT_SET_NO":999,"REV_AT_EPOCH":577,"BSTAR":0.073258172,"MEAN_MOTION_DOT":0.01319331,"MEAN_MOTION_DDOT":0},{"OBJECT_NAME":"ICEYE-X49","OBJECT_ID":"2024-247H","EPOCH":"2026-03-09T07:25:45.965856","MEAN_MOTION":15.11992896,"ECCENTRICITY":0.00021088,"INCLINATION":44.9974,"RA_OF_ASC_NODE":170.2236,"ARG_OF_PERICENTER":247.0457,"MEAN_ANOMALY":113.0198,"EPHEMERIS_TYPE":0,"CLASSIFICATION_TYPE":"U","NORAD_CAT_ID":62384,"ELEMENT_SET_NO":999,"REV_AT_EPOCH":6705,"BSTAR":0.0002452873,"MEAN_MOTION_DOT":4.029e-5,"MEAN_MOTION_DDOT":0}]
